{
    "week": 295,
    "satellites": [
        {
            "Name": "GSAT0101 (GALILEO-PFM)",
            "Line1": "1 37846U 11060A   24341.00601221 -.00000060  00000+0  00000+0 0  9997",
            "Line2": "2 37846  57.1200 356.8859 0002546 310.6930  49.3283  1.70475679 81608",
            "SatelliteNumber": "37846",
            "Classification": "U",
            "LaunchYear": "11",
            "LaunchNumber": "060",
            "PieceOfLaunch": "A",
            "EpochYear": "24",
            "EpochDay": 341.00601221,
            "FirstDerivativeMeanMotion": -6e-07,
            "SecondDerivativeMeanMotion": "00000+0",
            "BSTAR": "00000+0",
            "SetNumber": "999",
            "Inclination": 57.12,
            "RAAN": 356.8859,
            "Eccentricity": 0.0002546,
            "ArgumentOfPerigee": 310.693,
            "MeanAnomaly": 49.3283,
            "MeanMotion": 1.70475679,
            "RevolutionNumber": "8160"
        },
        {
            "Name": "GSAT0102 (GALILEO-FM2)",
            "Line1": "1 37847U 11060B   24340.93782469 -.00000060  00000+0  00000+0 0  9993",
            "Line2": "2 37847  57.1208 356.8880 0004561 304.4001  59.1434  1.70475204 81612",
            "SatelliteNumber": "37847",
            "Classification": "U",
            "LaunchYear": "11",
            "LaunchNumber": "060",
            "PieceOfLaunch": "B",
            "EpochYear": "24",
            "EpochDay": 340.93782469,
            "FirstDerivativeMeanMotion": -6e-07,
            "SecondDerivativeMeanMotion": "00000+0",
            "BSTAR": "00000+0",
            "SetNumber": "999",
            "Inclination": 57.1208,
            "RAAN": 356.888,
            "Eccentricity": 0.0004561,
            "ArgumentOfPerigee": 304.4001,
            "MeanAnomaly": 59.1434,
            "MeanMotion": 1.70475204,
            "RevolutionNumber": "8161"
        },
        {
            "Name": "GSAT0103 (GALILEO-FM3)",
            "Line1": "1 38857U 12055A   24341.04541264  .00000053  00000+0  00000+0 0  9990",
            "Line2": "2 38857  55.4894 116.8812 0002618 251.1351 108.8060  1.70473367 75632",
            "SatelliteNumber": "38857",
            "Classification": "U",
            "LaunchYear": "12",
            "LaunchNumber": "055",
            "PieceOfLaunch": "A",
            "EpochYear": "24",
            "EpochDay": 341.04541264,
            "FirstDerivativeMeanMotion": 5.3e-07,
            "SecondDerivativeMeanMotion": "00000+0",
            "BSTAR": "00000+0",
            "SetNumber": "999",
            "Inclination": 55.4894,
            "RAAN": 116.8812,
            "Eccentricity": 0.0002618,
            "ArgumentOfPerigee": 251.1351,
            "MeanAnomaly": 108.806,
            "MeanMotion": 1.70473367,
            "RevolutionNumber": "7563"
        },
        {
            "Name": "GSAT0201 (GALILEO 5)",
            "Line1": "1 40128U 14050A   24341.56455647 -.00000050  00000+0  00000+0 0  9995",
            "Line2": "2 40128  49.4802 296.1215 1615820 157.9426 209.9174  1.85519502 69910",
            "SatelliteNumber": "40128",
            "Classification": "U",
            "LaunchYear": "14",
            "LaunchNumber": "050",
            "PieceOfLaunch": "A",
            "EpochYear": "24",
            "EpochDay": 341.56455647,
            "FirstDerivativeMeanMotion": -5e-07,
            "SecondDerivativeMeanMotion": "00000+0",
            "BSTAR": "00000+0",
            "SetNumber": "999",
            "Inclination": 49.4802,
            "RAAN": 296.1215,
            "Eccentricity": 0.161582,
            "ArgumentOfPerigee": 157.9426,
            "MeanAnomaly": 209.9174,
            "MeanMotion": 1.85519502,
            "RevolutionNumber": "6991"
        },
        {
            "Name": "GSAT0202 (GALILEO 6)",
            "Line1": "1 40129U 14050B   24341.28321336 -.00000048  00000+0  00000+0 0  9999",
            "Line2": "2 40129  49.4966 295.2122 1615195 158.7201 208.8799  1.85520234 70102",
            "SatelliteNumber": "40129",
            "Classification": "U",
            "LaunchYear": "14",
            "LaunchNumber": "050",
            "PieceOfLaunch": "B",
            "EpochYear": "24",
            "EpochDay": 341.28321336,
            "FirstDerivativeMeanMotion": -4.8e-07,
            "SecondDerivativeMeanMotion": "00000+0",
            "BSTAR": "00000+0",
            "SetNumber": "999",
            "Inclination": 49.4966,
            "RAAN": 295.2122,
            "Eccentricity": 0.1615195,
            "ArgumentOfPerigee": 158.7201,
            "MeanAnomaly": 208.8799,
            "MeanMotion": 1.85520234,
            "RevolutionNumber": "7010"
        },
        {
            "Name": "GSAT0203 (GALILEO 7)",
            "Line1": "1 40544U 15017A   24340.19824283 -.00000060  00000+0  00000+0 0  9996",
            "Line2": "2 40544  56.9148 356.8187 0006109 264.1231  95.8518  1.70475911 59673",
            "SatelliteNumber": "40544",
            "Classification": "U",
            "LaunchYear": "15",
            "LaunchNumber": "017",
            "PieceOfLaunch": "A",
            "EpochYear": "24",
            "EpochDay": 340.19824283,
            "FirstDerivativeMeanMotion": -6e-07,
            "SecondDerivativeMeanMotion": "00000+0",
            "BSTAR": "00000+0",
            "SetNumber": "999",
            "Inclination": 56.9148,
            "RAAN": 356.8187,
            "Eccentricity": 0.0006109,
            "ArgumentOfPerigee": 264.1231,
            "MeanAnomaly": 95.8518,
            "MeanMotion": 1.70475911,
            "RevolutionNumber": "5967"
        },
        {
            "Name": "GSAT0204 (GALILEO 8)",
            "Line1": "1 40545U 15017B   24339.86632324 -.00000060  00000+0  00000+0 0  9992",
            "Line2": "2 40545  56.9211 356.8438 0005859 254.4267 105.5539  1.70475547 22718",
            "SatelliteNumber": "40545",
            "Classification": "U",
            "LaunchYear": "15",
            "LaunchNumber": "017",
            "PieceOfLaunch": "B",
            "EpochYear": "24",
            "EpochDay": 339.86632324,
            "FirstDerivativeMeanMotion": -6e-07,
            "SecondDerivativeMeanMotion": "00000+0",
            "BSTAR": "00000+0",
            "SetNumber": "999",
            "Inclination": 56.9211,
            "RAAN": 356.8438,
            "Eccentricity": 0.0005859,
            "ArgumentOfPerigee": 254.4267,
            "MeanAnomaly": 105.5539,
            "MeanMotion": 1.70475547,
            "RevolutionNumber": "2271"
        },
        {
            "Name": "GSAT0205 (GALILEO 9)",
            "Line1": "1 40889U 15045A   24341.39465604  .00000030  00000+0  00000+0 0  9996",
            "Line2": "2 40889  55.1423 237.0145 0005734  34.4781 325.6409  1.70472919 57505",
            "SatelliteNumber": "40889",
            "Classification": "U",
            "LaunchYear": "15",
            "LaunchNumber": "045",
            "PieceOfLaunch": "A",
            "EpochYear": "24",
            "EpochDay": 341.39465604,
            "FirstDerivativeMeanMotion": 3e-07,
            "SecondDerivativeMeanMotion": "00000+0",
            "BSTAR": "00000+0",
            "SetNumber": "999",
            "Inclination": 55.1423,
            "RAAN": 237.0145,
            "Eccentricity": 0.0005734,
            "ArgumentOfPerigee": 34.4781,
            "MeanAnomaly": 325.6409,
            "MeanMotion": 1.70472919,
            "RevolutionNumber": "5750"
        },
        {
            "Name": "GSAT0206 (GALILEO 10)",
            "Line1": "1 40890U 15045B   24339.85554475  .00000036  00000+0  00000+0 0  9997",
            "Line2": "2 40890  55.1415 237.0522 0003789  34.4885 325.6228  1.70472989 57506",
            "SatelliteNumber": "40890",
            "Classification": "U",
            "LaunchYear": "15",
            "LaunchNumber": "045",
            "PieceOfLaunch": "B",
            "EpochYear": "24",
            "EpochDay": 339.85554475,
            "FirstDerivativeMeanMotion": 3.6e-07,
            "SecondDerivativeMeanMotion": "00000+0",
            "BSTAR": "00000+0",
            "SetNumber": "999",
            "Inclination": 55.1415,
            "RAAN": 237.0522,
            "Eccentricity": 0.0003789,
            "ArgumentOfPerigee": 34.4885,
            "MeanAnomaly": 325.6228,
            "MeanMotion": 1.70472989,
            "RevolutionNumber": "5750"
        },
        {
            "Name": "GSAT0209 (GALILEO 12)",
            "Line1": "1 41174U 15079A   24341.78435208  .00000054  00000+0  00000+0 0  9997",
            "Line2": "2 41174  55.5092 116.5717 0001899 342.0138  17.9517  1.70474412 55854",
            "SatelliteNumber": "41174",
            "Classification": "U",
            "LaunchYear": "15",
            "LaunchNumber": "079",
            "PieceOfLaunch": "A",
            "EpochYear": "24",
            "EpochDay": 341.78435208,
            "FirstDerivativeMeanMotion": 5.4e-07,
            "SecondDerivativeMeanMotion": "00000+0",
            "BSTAR": "00000+0",
            "SetNumber": "999",
            "Inclination": 55.5092,
            "RAAN": 116.5717,
            "Eccentricity": 0.0001899,
            "ArgumentOfPerigee": 342.0138,
            "MeanAnomaly": 17.9517,
            "MeanMotion": 1.70474412,
            "RevolutionNumber": "5585"
        }
    ]
}